{"fetched_at":"2026-07-24T07:06:09.640Z","source":"https://celestrak.org/NORAD/elements/gp.php?GROUP=planet&FORMAT=JSON","constellation":"tanager","records":[{"OBJECT_NAME":"TANAGER-1","OBJECT_ID":"2024-149AR","EPOCH":"2026-07-22T12:54:14.484960","CLASSIFICATION_TYPE":"U","MEAN_MOTION":15.4394218,"ECCENTRICITY":0.00036004,"INCLINATION":97.2319,"RA_OF_ASC_NODE":297.6298,"ARG_OF_PERICENTER":123.9157,"MEAN_ANOMALY":236.2434,"EPHEMERIS_TYPE":0,"NORAD_CAT_ID":60507,"ELEMENT_SET_NO":999,"REV_AT_EPOCH":10849,"BSTAR":0.000007611011,"MEAN_MOTION_DOT":0.00000262,"MEAN_MOTION_DDOT":0}]}
